[{"OBJECT_NAME":"BEIDOU-3 M26 (C48)","OBJECT_ID":"2023-207B","EPOCH":"2026-04-26T00:16:56.147808","MEAN_MOTION":1.86229668,"ECCENTRICITY":0.0004978,"INCLINATION":55.711,"RA_OF_ASC_NODE":64.0489,"ARG_OF_PERICENTER":305.0677,"MEAN_ANOMALY":54.8583,"EPHEMERIS_TYPE":0,"CLASSIFICATION_TYPE":"U","NORAD_CAT_ID":58655,"ELEMENT_SET_NO":999,"REV_AT_EPOCH":1585,"BSTAR":0,"MEAN_MOTION_DOT":-3.7e-7,"MEAN_MOTION_DDOT":0},{"OBJECT_NAME":"BEIDOU-3 M25 (C47)","OBJECT_ID":"2024-168B","EPOCH":"2026-04-25T00:50:02.241024","MEAN_MOTION":1.8622996,"ECCENTRICITY":0.00032843,"INCLINATION":54.5213,"RA_OF_ASC_NODE":304.0879,"ARG_OF_PERICENTER":319.3205,"MEAN_ANOMALY":222.7466,"EPHEMERIS_TYPE":0,"CLASSIFICATION_TYPE":"U","NORAD_CAT_ID":61186,"ELEMENT_SET_NO":999,"REV_AT_EPOCH":1079,"BSTAR":0,"MEAN_MOTION_DOT":-4.9e-7,"MEAN_MOTION_DDOT":0},{"OBJECT_NAME":"BEIDOU-3 M27 (C49)","OBJECT_ID":"2024-168C","EPOCH":"2026-04-26T10:41:40.860384","MEAN_MOTION":1.86230164,"ECCENTRICITY":0.0002607,"INCLINATION":54.5157,"RA_OF_ASC_NODE":304.022,"ARG_OF_PERICENTER":40.2709,"MEAN_ANOMALY":142.718,"EPHEMERIS_TYPE":0,"CLASSIFICATION_TYPE":"U","NORAD_CAT_ID":61187,"ELEMENT_SET_NO":999,"REV_AT_EPOCH":829,"BSTAR":0,"MEAN_MOTION_DOT":-5.8e-7,"MEAN_MOTION_DDOT":0}]
